CCSDS_OMM_VERS = 2.0
CREATION_DATE  = 
ORIGINATOR     = 

OBJECT_NAME    = KUIPER-00197
OBJECT_ID      = 2026-030F
CENTER_NAME    = EARTH
REF_FRAME      = TEME
TIME_SYSTEM    = UTC
MEAN_ELEMENT_THEORY = SGP/SGP4

EPOCH          = 2026-03-07T23:53:27.254112
MEAN_MOTION    = 15.36302091
ECCENTRICITY   = .0001803
INCLINATION    = 51.8826
RA_OF_ASC_NODE = 227.2212
ARG_OF_PERICENTER = 48.7372
MEAN_ANOMALY   = 311.3769

EPHEMERIS_TYPE = 0
CLASSIFICATION_TYPE = U
NORAD_CAT_ID   = 67769
ELEMENT_SET_NO = 999
REV_AT_EPOCH   = 483
BSTAR          = .9158E-3
MEAN_MOTION_DOT = .32671E-3
MEAN_MOTION_DDOT = 0

CCSDS_OMM_VERS = 2.0
CREATION_DATE  = 
ORIGINATOR     = 

OBJECT_NAME    = KUIPER-00198
OBJECT_ID      = 2026-030G
CENTER_NAME    = EARTH
REF_FRAME      = TEME
TIME_SYSTEM    = UTC
MEAN_ELEMENT_THEORY = SGP/SGP4

EPOCH          = 2026-03-08T00:01:19.127712
MEAN_MOTION    = 15.36003103
ECCENTRICITY   = .0003434
INCLINATION    = 51.8807
RA_OF_ASC_NODE = 227.2516
ARG_OF_PERICENTER = 42.8302
MEAN_ANOMALY   = 317.2951

EPHEMERIS_TYPE = 0
CLASSIFICATION_TYPE = U
NORAD_CAT_ID   = 67770
ELEMENT_SET_NO = 999
REV_AT_EPOCH   = 483
BSTAR          = .13888E-2
MEAN_MOTION_DOT = .49382E-3
MEAN_MOTION_DDOT = 0

CCSDS_OMM_VERS = 2.0
CREATION_DATE  = 
ORIGINATOR     = 

OBJECT_NAME    = KUIPER-00199
OBJECT_ID      = 2026-030H
CENTER_NAME    = EARTH
REF_FRAME      = TEME
TIME_SYSTEM    = UTC
MEAN_ELEMENT_THEORY = SGP/SGP4

EPOCH          = 2026-03-07T23:02:58.509888
MEAN_MOTION    = 15.34306947
ECCENTRICITY   = .0010561
INCLINATION    = 51.8818
RA_OF_ASC_NODE = 227.7212
ARG_OF_PERICENTER = 56.0038
MEAN_ANOMALY   = 304.1949

EPHEMERIS_TYPE = 0
CLASSIFICATION_TYPE = U
NORAD_CAT_ID   = 67771
ELEMENT_SET_NO = 999
REV_AT_EPOCH   = 482
BSTAR          = .9453E-3
MEAN_MOTION_DOT = .3168E-3
MEAN_MOTION_DDOT = 0

CCSDS_OMM_VERS = 2.0
CREATION_DATE  = 
ORIGINATOR     = 

OBJECT_NAME    = KUIPER-00200
OBJECT_ID      = 2026-030J
CENTER_NAME    = EARTH
REF_FRAME      = TEME
TIME_SYSTEM    = UTC
MEAN_ELEMENT_THEORY = SGP/SGP4

EPOCH          = 2026-03-07T23:39:52.294752
MEAN_MOTION    = 15.37025364
ECCENTRICITY   = .00008661
INCLINATION    = 51.8813
RA_OF_ASC_NODE = 227.1567
ARG_OF_PERICENTER = 263.0735
MEAN_ANOMALY   = 97.0153

EPHEMERIS_TYPE = 0
CLASSIFICATION_TYPE = U
NORAD_CAT_ID   = 67772
ELEMENT_SET_NO = 999
REV_AT_EPOCH   = 483
BSTAR          = .15161461E-2
MEAN_MOTION_DOT = .55801E-3
MEAN_MOTION_DDOT = 0

CCSDS_OMM_VERS = 2.0
CREATION_DATE  = 
ORIGINATOR     = 

OBJECT_NAME    = KUIPER-00203
OBJECT_ID      = 2026-030K
CENTER_NAME    = EARTH
REF_FRAME      = TEME
TIME_SYSTEM    = UTC
MEAN_ELEMENT_THEORY = SGP/SGP4

EPOCH          = 2026-03-07T22:00:01.999584
MEAN_MOTION    = 15.17305384
ECCENTRICITY   = .00116242
INCLINATION    = 51.8846
RA_OF_ASC_NODE = 228.4140
ARG_OF_PERICENTER = 55.6667
MEAN_ANOMALY   = 154.8274

EPHEMERIS_TYPE = 0
CLASSIFICATION_TYPE = U
NORAD_CAT_ID   = 67773
ELEMENT_SET_NO = 999
REV_AT_EPOCH   = 338
BSTAR          = -.70439026E-1
MEAN_MOTION_DOT = -.1300816E-1
MEAN_MOTION_DDOT = 0

CCSDS_OMM_VERS = 2.0
CREATION_DATE  = 
ORIGINATOR     = 

OBJECT_NAME    = KUIPER-00205
OBJECT_ID      = 2026-030L
CENTER_NAME    = EARTH
REF_FRAME      = TEME
TIME_SYSTEM    = UTC
MEAN_ELEMENT_THEORY = SGP/SGP4

EPOCH          = 2026-03-07T23:54:32.753952
MEAN_MOTION    = 15.36344699
ECCENTRICITY   = .0003127
INCLINATION    = 51.8801
RA_OF_ASC_NODE = 227.2200
ARG_OF_PERICENTER = 17.5799
MEAN_ANOMALY   = 342.5295

EPHEMERIS_TYPE = 0
CLASSIFICATION_TYPE = U
NORAD_CAT_ID   = 67774
ELEMENT_SET_NO = 999
REV_AT_EPOCH   = 483
BSTAR          = .12652E-2
MEAN_MOTION_DOT = .45427E-3
MEAN_MOTION_DDOT = 0

CCSDS_OMM_VERS = 2.0
CREATION_DATE  = 
ORIGINATOR     = 

OBJECT_NAME    = KUIPER-00208
OBJECT_ID      = 2026-030M
CENTER_NAME    = EARTH
REF_FRAME      = TEME
TIME_SYSTEM    = UTC
MEAN_ELEMENT_THEORY = SGP/SGP4

EPOCH          = 2026-03-07T21:52:17.118336
MEAN_MOTION    = 15.32278708
ECCENTRICITY   = .00149914
INCLINATION    = 51.8846
RA_OF_ASC_NODE = 228.1462
ARG_OF_PERICENTER = 53.9055
MEAN_ANOMALY   = 306.3316

EPHEMERIS_TYPE = 0
CLASSIFICATION_TYPE = U
NORAD_CAT_ID   = 67775
ELEMENT_SET_NO = 999
REV_AT_EPOCH   = 481
BSTAR          = .17884258E-2
MEAN_MOTION_DOT = .56809E-3
MEAN_MOTION_DDOT = 0

CCSDS_OMM_VERS = 2.0
CREATION_DATE  = 
ORIGINATOR     = 

OBJECT_NAME    = KUIPER-00209
OBJECT_ID      = 2026-030N
CENTER_NAME    = EARTH
REF_FRAME      = TEME
TIME_SYSTEM    = UTC
MEAN_ELEMENT_THEORY = SGP/SGP4

EPOCH          = 2026-03-07T23:38:36.360384
MEAN_MOTION    = 15.30287464
ECCENTRICITY   = .00129657
INCLINATION    = 51.8831
RA_OF_ASC_NODE = 227.8852
ARG_OF_PERICENTER = 62.3495
MEAN_ANOMALY   = 297.8803

EPHEMERIS_TYPE = 0
CLASSIFICATION_TYPE = U
NORAD_CAT_ID   = 67776
ELEMENT_SET_NO = 999
REV_AT_EPOCH   = 482
BSTAR          = .86807414E-3
MEAN_MOTION_DOT = .25588E-3
MEAN_MOTION_DDOT = 0

CCSDS_OMM_VERS = 2.0
CREATION_DATE  = 
ORIGINATOR     = 

OBJECT_NAME    = KUIPER-00213
OBJECT_ID      = 2026-030P
CENTER_NAME    = EARTH
REF_FRAME      = TEME
TIME_SYSTEM    = UTC
MEAN_ELEMENT_THEORY = SGP/SGP4

EPOCH          = 2026-03-07T23:26:25.919232
MEAN_MOTION    = 15.32701069
ECCENTRICITY   = .00149888
INCLINATION    = 51.8817
RA_OF_ASC_NODE = 227.8246
ARG_OF_PERICENTER = 59.8945
MEAN_ANOMALY   = 300.3524

EPHEMERIS_TYPE = 0
CLASSIFICATION_TYPE = U
NORAD_CAT_ID   = 67777
ELEMENT_SET_NO = 999
REV_AT_EPOCH   = 482
BSTAR          = .12333293E-2
MEAN_MOTION_DOT = .39494E-3
MEAN_MOTION_DDOT = 0

CCSDS_OMM_VERS = 2.0
CREATION_DATE  = 
ORIGINATOR     = 

OBJECT_NAME    = KUIPER-00214
OBJECT_ID      = 2026-030Q
CENTER_NAME    = EARTH
REF_FRAME      = TEME
TIME_SYSTEM    = UTC
MEAN_ELEMENT_THEORY = SGP/SGP4

EPOCH          = 2026-03-07T23:44:29.390784
MEAN_MOTION    = 15.36699414
ECCENTRICITY   = .0000274
INCLINATION    = 51.8840
RA_OF_ASC_NODE = 227.1830
ARG_OF_PERICENTER = 222.0771
MEAN_ANOMALY   = 138.0195

EPHEMERIS_TYPE = 0
CLASSIFICATION_TYPE = U
NORAD_CAT_ID   = 67778
ELEMENT_SET_NO = 999
REV_AT_EPOCH   = 483
BSTAR          = .13798E-2
MEAN_MOTION_DOT = .50177E-3
MEAN_MOTION_DDOT = 0

CCSDS_OMM_VERS = 2.0
CREATION_DATE  = 
ORIGINATOR     = 

OBJECT_NAME    = KUIPER-00215
OBJECT_ID      = 2026-030R
CENTER_NAME    = EARTH
REF_FRAME      = TEME
TIME_SYSTEM    = UTC
MEAN_ELEMENT_THEORY = SGP/SGP4

EPOCH          = 2026-03-08T00:34:13.897344
MEAN_MOTION    = 15.34404839
ECCENTRICITY   = .0012279
INCLINATION    = 51.8849
RA_OF_ASC_NODE = 227.4066
ARG_OF_PERICENTER = 53.5226
MEAN_ANOMALY   = 306.6889

EPHEMERIS_TYPE = 0
CLASSIFICATION_TYPE = U
NORAD_CAT_ID   = 67779
ELEMENT_SET_NO = 999
REV_AT_EPOCH   = 483
BSTAR          = .12734E-2
MEAN_MOTION_DOT = .43034E-3
MEAN_MOTION_DDOT = 0

CCSDS_OMM_VERS = 2.0
CREATION_DATE  = 
ORIGINATOR     = 

OBJECT_NAME    = KUIPER-00218
OBJECT_ID      = 2026-030S
CENTER_NAME    = EARTH
REF_FRAME      = TEME
TIME_SYSTEM    = UTC
MEAN_ELEMENT_THEORY = SGP/SGP4

EPOCH          = 2026-03-08T00:18:41.047776
MEAN_MOTION    = 15.35127882
ECCENTRICITY   = .0007324
INCLINATION    = 51.8837
RA_OF_ASC_NODE = 227.3346
ARG_OF_PERICENTER = 46.4040
MEAN_ANOMALY   = 313.7552

EPHEMERIS_TYPE = 0
CLASSIFICATION_TYPE = U
NORAD_CAT_ID   = 67780
ELEMENT_SET_NO = 999
REV_AT_EPOCH   = 483
BSTAR          = .12207E-2
MEAN_MOTION_DOT = .42136E-3
MEAN_MOTION_DDOT = 0

