KUIPER-00197            
1 67769U 26030F   26066.99545433  .00032671  00000+0  91580-3 0  9992
2 67769  51.8826 227.2212 0001803  48.7372 311.3769 15.36302091  4833
KUIPER-00198            
1 67770U 26030G   26067.00091583  .00049382  00000+0  13888-2 0  9990
2 67770  51.8807 227.2516 0003434  42.8302 317.2951 15.36003103  4831
KUIPER-00199            
1 67771U 26030H   26066.96039942  .00031680  00000+0  94530-3 0  9992
2 67771  51.8818 227.7212 0010561  56.0038 304.1949 15.34306947  4825
KUIPER-00200            
1 67772U 26030J   26066.98602193  .00055801  00000+0  15161-2 0  9992
2 67772  51.8813 227.1567 0000866 263.0735  97.0153 15.37025364  4839
KUIPER-00203            
1 67773U 26030K   26066.91668981 -.01300816  00000+0 -70439-1 0  9993
2 67773  51.8846 228.4140 0011624  55.6667 154.8274 15.17305384  3386
KUIPER-00205            
1 67774U 26030L   26066.99621243  .00045427  00000+0  12652-2 0  9997
2 67774  51.8801 227.2200 0003127  17.5799 342.5295 15.36344699  4837
KUIPER-00208            
1 67775U 26030M   26066.91130924  .00056809  00000+0  17884-2 0  9999
2 67775  51.8846 228.1462 0014991  53.9055 306.3316 15.32278708  4810
KUIPER-00209            
1 67776U 26030N   26066.98514306  .00025588  00000+0  86807-3 0  9999
2 67776  51.8831 227.8852 0012965  62.3495 297.8803 15.30287464  4828
KUIPER-00213            
1 67777U 26030P   26066.97668888  .00039494  00000+0  12333-2 0  9997
2 67777  51.8817 227.8246 0014988  59.8945 300.3524 15.32701069  4822
KUIPER-00214            
1 67778U 26030Q   26066.98922906  .00050177  00000+0  13798-2 0  9990
2 67778  51.8840 227.1830 0000274 222.0771 138.0195 15.36699414  4830
KUIPER-00215            
1 67779U 26030R   26067.02377196  .00043034  00000+0  12734-2 0  9995
2 67779  51.8849 227.4066 0012279  53.5226 306.6889 15.34404839  4830
KUIPER-00218            
1 67780U 26030S   26067.01297509  .00042136  00000+0  12207-2 0  9992
2 67780  51.8837 227.3346 0007324  46.4040 313.7552 15.35127882  4836
